start=new Date('2022-06-26T00:00:00.000Z').valueOf();
sats=[{"BSTAR":"0.00009593100000","NORAD_CAT_ID":"46711","EPOCH":"2022-06-25T18:02:44.217024","RA_OF_ASC_NODE":"195.2021","EPHEMERIS_TYPE":"0","ARG_OF_PERICENTER":"49.6854","PERIAPSIS":"545.855","REV_AT_EPOCH":"9321","LAUNCH_DATE":"2020-10-18","PERIOD":"95.592","TIME_SYSTEM":"UTC","RCS_SIZE":"LARGE","DECAY_DATE":null,"FILE":"3502557","OBJECT_TYPE":"PAYLOAD","TLE_LINE2":"2 46711  53.0542 195.2021 0001977  49.6854 310.4308 15.06396674 93211","ELEMENT_SET_NO":"999","CENTER_NAME":"EARTH","MEAN_MOTION":"15.06396674","REF_FRAME":"TEME","OBJECT_ID":"2020-073AT","MEAN_ELEMENT_THEORY":"SGP4","TLE_LINE1":"1 46711U 20073AT  22176.75190066  .00001147  00000-0  95931-4 0  9997","COUNTRY_CODE":"US","SEMIMAJOR_AXIS":"6925.359","MEAN_MOTION_DOT":"0.00001147","INCLINATION":"53.0542","SITE":"AFETR","APOAPSIS":"548.593","MEAN_ANOMALY":"310.4308","GP_ID":"206855088","ECCENTRICITY":"0.00019770","MEAN_MOTION_DDOT":"0.0000000000000","OBJECT_NAME":"STARLINK-1813","CLASSIFICATION_TYPE":"U"},{"TLE_LINE2":"2 46712  53.0530 196.6000 0001744  62.5439 297.5728 15.06396092 93165","OBJECT_TYPE":"PAYLOAD","MEAN_MOTION":"15.06396092","CENTER_NAME":"EARTH","ELEMENT_SET_NO":"999","DECAY_DATE":null,"FILE":"3502315","RCS_SIZE":"LARGE","PERIOD":"95.592","LAUNCH_DATE":"2020-10-18","TIME_SYSTEM":"UTC","EPHEMERIS_TYPE":"0","RA_OF_ASC_NODE":"196.6000","NORAD_CAT_ID":"46712","EPOCH":"2022-06-25T11:08:45.965760","BSTAR":"0.00008009400000","PERIAPSIS":"546.018","REV_AT_EPOCH":"9316","ARG_OF_PERICENTER":"62.5439","OBJECT_NAME":"STARLINK-1814","CLASSIFICATION_TYPE":"U","MEAN_ANOMALY":"297.5728","APOAPSIS":"548.433","MEAN_MOTION_DDOT":"0.0000000000000","ECCENTRICITY":"0.00017440","GP_ID":"206823935","MEAN_MOTION_DOT":"0.00000911","SITE":"AFETR","INCLINATION":"53.0530","REF_FRAME":"TEME","COUNTRY_CODE":"US","SEMIMAJOR_AXIS":"6925.361","MEAN_ELEMENT_THEORY":"SGP4","TLE_LINE1":"1 46712U 20073AU  22176.46442090  .00000911  00000-0  80094-4 0  9995","OBJECT_ID":"2020-073AU"},{"APOAPSIS":"548.512","MEAN_ANOMALY":"309.2764","GP_ID":"206824185","ECCENTRICITY":"0.00018580","MEAN_MOTION_DDOT":"0.0000000000000","OBJECT_NAME":"STARLINK-1815","CLASSIFICATION_TYPE":"U","REF_FRAME":"TEME","OBJECT_ID":"2020-073AV","MEAN_ELEMENT_THEORY":"SGP4","TLE_LINE1":"1 46713U 20073AV  22176.46344798  .00000640  00000-0  61867-4 0  9998","COUNTRY_CODE":"US","SEMIMAJOR_AXIS":"6925.360","MEAN_MOTION_DOT":"0.00000640","INCLINATION":"53.0529","SITE":"AFETR","DECAY_DATE":null,"FILE":"3502315","OBJECT_TYPE":"PAYLOAD","TLE_LINE2":"2 46713  53.0529 196.4667 0001858  50.8390 309.2764 15.06396122 93168","ELEMENT_SET_NO":"999","CENTER_NAME":"EARTH","MEAN_MOTION":"15.06396122","BSTAR":"0.00006186700000","EPOCH":"2022-06-25T11:07:21.905472","NORAD_CAT_ID":"46713","EPHEMERIS_TYPE":"0","RA_OF_ASC_NODE":"196.4667","ARG_OF_PERICENTER":"50.8390","PERIAPSIS":"545.939","REV_AT_EPOCH":"9316","PERIOD":"95.592","LAUNCH_DATE":"2020-10-18","TIME_SYSTEM":"UTC","RCS_SIZE":"LARGE"},{"CLASSIFICATION_TYPE":"U","OBJECT_NAME":"STARLINK-1816","GP_ID":"206855337","ECCENTRICITY":"0.00015310","MEAN_MOTION_DDOT":"0.0000000000000","APOAPSIS":"548.277","MEAN_ANOMALY":"306.3271","INCLINATION":"53.0531","SITE":"AFETR","MEAN_MOTION_DOT":"-0.00003372","OBJECT_ID":"2020-073AW","TLE_LINE1":"1 46714U 20073AW  22176.78508134 -.00003372  00000-0 -20760-3 0  9993","MEAN_ELEMENT_THEORY":"SGP4","SEMIMAJOR_AXIS":"6925.352","COUNTRY_CODE":"US","REF_FRAME":"TEME","ELEMENT_SET_NO":"999","CENTER_NAME":"EARTH","MEAN_MOTION":"15.06398869","OBJECT_TYPE":"PAYLOAD","TLE_LINE2":"2 46714  53.0531 195.0437 0001531  53.7860 306.3271 15.06398869 93211","FILE":"3502557","DECAY_DATE":null,"PERIOD":"95.592","LAUNCH_DATE":"2020-10-18","TIME_SYSTEM":"UTC","RCS_SIZE":"LARGE","ARG_OF_PERICENTER":"53.7860","PERIAPSIS":"546.157","REV_AT_EPOCH":"9321","BSTAR":"-0.00020760000000","NORAD_CAT_ID":"46714","EPOCH":"2022-06-25T18:50:31.027776","EPHEMERIS_TYPE":"0","RA_OF_ASC_NODE":"195.0437"},{"FILE":"3502557","DECAY_DATE":null,"ELEMENT_SET_NO":"999","CENTER_NAME":"EARTH","MEAN_MOTION":"15.06400544","OBJECT_TYPE":"PAYLOAD","TLE_LINE2":"2 46715  53.0548 195.0732 0002051  55.9423 304.1760 15.06400544 93218","REV_AT_EPOCH":"9321","PERIAPSIS":"545.792","ARG_OF_PERICENTER":"55.9423","BSTAR":"0.00008420600000","EPOCH":"2022-06-25T18:45:12.112416","NORAD_CAT_ID":"46715","EPHEMERIS_TYPE":"0","RA_OF_ASC_NODE":"195.0732","LAUNCH_DATE":"2020-10-18","PERIOD":"95.592","TIME_SYSTEM":"UTC","RCS_SIZE":"LARGE","GP_ID":"206855587","ECCENTRICITY":"0.00020510","MEAN_MOTION_DDOT":"0.0000000000000","APOAPSIS":"548.632","MEAN_ANOMALY":"304.1760","CLASSIFICATION_TYPE":"U","OBJECT_NAME":"STARLINK-1817","OBJECT_ID":"2020-073AX","TLE_LINE1":"1 46715U 20073AX  22176.78139019  .00000973  00000-0  84206-4 0  9994","MEAN_ELEMENT_THEORY":"SGP4","COUNTRY_CODE":"US","SEMIMAJOR_AXIS":"6925.347","REF_FRAME":"TEME","INCLINATION":"53.0548","SITE":"AFETR","MEAN_MOTION_DOT":"0.00000973"},{"LAUNCH_DATE":"2020-10-18","PERIOD":"95.592","TIME_SYSTEM":"UTC","RCS_SIZE":"LARGE","BSTAR":"0.00007081200000","EPOCH":"2022-06-25T19:07:05.560032","NORAD_CAT_ID":"46716","EPHEMERIS_TYPE":"0","RA_OF_ASC_NODE":"209.9893","PERIAPSIS":"546.086","ARG_OF_PERICENTER":"61.7880","REV_AT_EPOCH":"9300","OBJECT_TYPE":"PAYLOAD","TLE_LINE2":"2 46716  53.0527 209.9893 0001632  61.7880 298.3274 15.06399030 93003","ELEMENT_SET_NO":"999","CENTER_NAME":"EARTH","MEAN_MOTION":"15.06399030","DECAY_DATE":null,"FILE":"3502557","MEAN_MOTION_DOT":"0.00000773","INCLINATION":"53.0527","SITE":"AFETR","REF_FRAME":"TEME","OBJECT_ID":"2020-073AY","MEAN_ELEMENT_THEORY":"SGP4","TLE_LINE1":"1 46716U 20073AY  22176.79659213  .00000773  00000-0  70812-4 0  9995","SEMIMAJOR_AXIS":"6925.352","COUNTRY_CODE":"US","OBJECT_NAME":"STARLINK-1818","CLASSIFICATION_TYPE":"U","APOAPSIS":"548.347","MEAN_ANOMALY":"298.3274","GP_ID":"206854337","ECCENTRICITY":"0.00016320","MEAN_MOTION_DDOT":"0.0000000000000"},{"EPHEMERIS_TYPE":"0","RA_OF_ASC_NODE":"196.4723","NORAD_CAT_ID":"46717","EPOCH":"2022-06-25T11:14:03.032160","BSTAR":"0.00007001900000","REV_AT_EPOCH":"9316","PERIAPSIS":"546.048","ARG_OF_PERICENTER":"66.0684","RCS_SIZE":"LARGE","TIME_SYSTEM":"UTC","LAUNCH_DATE":"2020-10-18","PERIOD":"95.592","DECAY_DATE":null,"FILE":"3502315","TLE_LINE2":"2 46717  53.0548 196.4723 0001693  66.0684 294.0482 15.06397733 93165","OBJECT_TYPE":"PAYLOAD","MEAN_MOTION":"15.06397733","CENTER_NAME":"EARTH","ELEMENT_SET_NO":"999","REF_FRAME":"TEME","SEMIMAJOR_AXIS":"6925.356","COUNTRY_CODE":"US","TLE_LINE1":"1 46717U 20073AZ  22176.46809065  .00000761  00000-0  70019-4 0  9998","MEAN_ELEMENT_THEORY":"SGP4","OBJECT_ID":"2020-073AZ","MEAN_MOTION_DOT":"0.00000761","SITE":"AFETR","INCLINATION":"53.0548","MEAN_ANOMALY":"294.0482","APOAPSIS":"548.393","MEAN_MOTION_DDOT":"0.0000000000000","ECCENTRICITY":"0.00016930","GP_ID":"206823685","OBJECT_NAME":"STARLINK-1820","CLASSIFICATION_TYPE":"U"},{"REF_FRAME":"TEME","MEAN_ELEMENT_THEORY":"SGP4","TLE_LINE1":"1 46718U 20073BA  22176.50814534 -.00000137  00000-0  97122-5 0  9994","SEMIMAJOR_AXIS":"6925.338","COUNTRY_CODE":"US","OBJECT_ID":"2020-073BA","MEAN_MOTION_DOT":"-0.00000137","SITE":"AFETR","INCLINATION":"53.0535","MEAN_ANOMALY":"295.3764","APOAPSIS":"548.360","MEAN_MOTION_DDOT":"0.0000000000000","GP_ID":"206824936","ECCENTRICITY":"0.00016700","OBJECT_NAME":"STARLINK-1821","CLASSIFICATION_TYPE":"U","RA_OF_ASC_NODE":"211.2653","EPHEMERIS_TYPE":"0","BSTAR":"0.00000971220000","EPOCH":"2022-06-25T12:11:43.757376","NORAD_CAT_ID":"46718","PERIAPSIS":"546.047","ARG_OF_PERICENTER":"64.7398","REV_AT_EPOCH":"9296","RCS_SIZE":"LARGE","LAUNCH_DATE":"2020-10-18","PERIOD":"95.592","TIME_SYSTEM":"UTC","DECAY_DATE":null,"FILE":"3502315","TLE_LINE2":"2 46718  53.0535 211.2653 0001670  64.7398 295.3764 15.06403365 92965","OBJECT_TYPE":"PAYLOAD","CENTER_NAME":"EARTH","MEAN_MOTION":"15.06403365","ELEMENT_SET_NO":"999"},{"MEAN_MOTION_DOT":"0.00001060","SITE":"AFETR","INCLINATION":"53.0536","REF_FRAME":"TEME","COUNTRY_CODE":"US","SEMIMAJOR_AXIS":"6925.365","TLE_LINE1":"1 46719U 20073BB  22176.69110835  .00001060  00000-0  90037-4 0  9990","MEAN_ELEMENT_THEORY":"SGP4","OBJECT_ID":"2020-073BB","OBJECT_NAME":"STARLINK-1822","CLASSIFICATION_TYPE":"U","MEAN_ANOMALY":"302.3760","APOAPSIS":"548.456","MEAN_MOTION_DDOT":"0.0000000000000","ECCENTRICITY":"0.00017700","GP_ID":"206855089","RCS_SIZE":"LARGE","LAUNCH_DATE":"2020-10-18","PERIOD":"95.592","TIME_SYSTEM":"UTC","RA_OF_ASC_NODE":"175.4678","EPHEMERIS_TYPE":"0","EPOCH":"2022-06-25T16:35:11.761440","NORAD_CAT_ID":"46719","BSTAR":"0.00009003700000","PERIAPSIS":"546.004","REV_AT_EPOCH":"9348","ARG_OF_PERICENTER":"57.7400","TLE_LINE2":"2 46719  53.0536 175.4678 0001770  57.7400 302.3760 15.06394559 93489","OBJECT_TYPE":"PAYLOAD","MEAN_MOTION":"15.06394559","CENTER_NAME":"EARTH","ELEMENT_SET_NO":"999","DECAY_DATE":null,"FILE":"3502557"},{"MEAN_ANOMALY":"264.6422","APOAPSIS":"345.175","MEAN_MOTION_DDOT":"0.0000000000000","ECCENTRICITY":"0.00030960","GP_ID":"206853838","OBJECT_NAME":"STARLINK-1823","CLASSIFICATION_TYPE":"U","REF_FRAME":"TEME","COUNTRY_CODE":"US","SEMIMAJOR_AXIS":"6721.229","MEAN_ELEMENT_THEORY":"SGP4","TLE_LINE1":"1 46720U 20073BC  22176.90063465  .00089037  00000-0  57117-3 0  9993","OBJECT_ID":"2020-073BC","MEAN_MOTION_DOT":"0.00089037","SITE":"AFETR","INCLINATION":"53.0478","DECAY_DATE":null,"FILE":"3502557","TLE_LINE2":"2 46720  53.0478  77.8196 0003096  95.4950 264.6422 15.75540990 94875","OBJECT_TYPE":"PAYLOAD","MEAN_MOTION":"15.75540990","CENTER_NAME":"EARTH","ELEMENT_SET_NO":"999","EPHEMERIS_TYPE":"0","RA_OF_ASC_NODE":"77.8196","EPOCH":"2022-06-25T21:36:54.833760","NORAD_CAT_ID":"46720","BSTAR":"0.00057117000000","ARG_OF_PERICENTER":"95.4950","PERIAPSIS":"341.013","REV_AT_EPOCH":"9487","RCS_SIZE":"LARGE","PERIOD":"91.397","LAUNCH_DATE":"2020-10-18","TIME_SYSTEM":"UTC"}];
